OBJECT_NAME,OBJECT_ID,EPOCH,MEAN_MOTION,ECCENTRICITY,INCLINATION,RA_OF_ASC_NODE,ARG_OF_PERICENTER,MEAN_ANOMALY,EPHEMERIS_TYPE,CLASSIFICATION_TYPE,NORAD_CAT_ID,ELEMENT_SET_NO,REV_AT_EPOCH,BSTAR,MEAN_MOTION_DOT,MEAN_MOTION_DDOT
ONEWEB-0608,2022-166AG,2024-01-20T14:23:09.889728,13.21825563,.0001188,87.9220,58.8690,104.3724,255.7541,0,U,54672,999,5594,.88645E-4,.5E-6,0
ONEWEB-0610,2022-166AH,2024-01-20T13:55:55.263936,13.21826227,.0001324,87.9220,58.8744,100.2217,259.9066,0,U,54673,999,5538,.12095E-3,.63E-6,0
ONEWEB-0611,2022-166AJ,2024-01-20T13:46:49.975392,13.21825176,.0002336,87.9219,58.8757,96.5948,263.5451,0,U,54674,999,5537,-.13665E-4,.7E-7,0
ONEWEB-0612,2022-166AK,2024-01-20T15:54:01.038528,13.21825693,.0001514,87.9212,58.8430,97.6584,262.4722,0,U,54675,999,5584,.15643E-4,.19E-6,0
ONEWEB-0615,2022-166AL,2024-01-20T13:37:45.162048,13.21827195,.0001751,87.9212,58.8862,106.3550,253.7776,0,U,54676,999,5537,.2123E-4,.22E-6,0
ONEWEB-0655,2022-166AM,2024-01-20T14:48:07.187904,13.21831854,.0001629,87.9206,58.8774,128.4601,231.6679,0,U,54677,999,5537,-.43339E-3,-.166E-5,0
ONEWEB-0659,2022-166AN,2024-01-20T13:24:06.967872,13.21825296,.0002019,87.9211,58.8975,89.4665,270.6700,0,U,54678,999,5545,-.39841E-3,-.152E-5,0
ONEWEB-0685,2022-166AP,2024-01-20T13:26:23.834112,13.21824297,.0001642,87.9213,58.8848,105.9636,254.1679,0,U,54679,999,5534,-.20285E-3,-.71E-6,0
ONEWEB-0712,2022-166AQ,2024-01-20T13:35:10.071456,13.16591521,.0002307,87.9037,43.6528,94.6441,265.4953,0,U,54680,999,5690,.96837E-4,.5E-6,0
ONEWEB-0714,2022-166AR,2024-01-20T15:24:28.614240,13.21825395,.0001611,87.9216,58.8523,101.8727,258.2587,0,U,54681,999,5594,-.2287E-4,.4E-7,0
2022-167A,2022-167A,2024-01-20T19:07:54.865920,15.25767381,.0010252,97.5772,164.0982,301.4025,58.6210,0,U,54682,999,6175,.11973E-2,.30637E-3,0
CAS-5A (FO-118),2022-167C,2024-01-20T18:22:18.720480,15.21512874,.0011342,97.5838,163.3293,306.3555,53.6632,0,U,54684,999,6167,.99324E-3,.22372E-3,0
DONGPO 09,2022-167D,2024-01-20T17:11:52.167264,15.15952245,.0004928,97.5910,162.3273,320.0444,40.0425,0,U,54685,999,6158,.67918E-3,.12976E-3,0
DONGPO 08,2022-167E,2024-01-20T19:06:42.320160,15.15979500,.0009054,97.5861,162.1244,340.9919,19.0974,0,U,54686,999,6159,.68491E-3,.13105E-3,0
2022-167F,2022-167F,2024-01-20T20:42:44.892576,15.19102328,.0010516,97.5772,162.8987,313.2265,171.8092,0,U,54687,999,6166,.11153E-2,.23426E-3,0
2022-167G,2022-167G,2024-01-20T19:37:34.789728,15.26342332,.001145,97.5767,164.5144,316.3727,43.6605,0,U,54688,999,6177,.15017E-2,.39174E-3,0
DONGPO 10,2022-167H,2024-01-20T18:36:25.278048,15.15971600,.0010322,97.5935,162.5263,308.5005,51.5301,0,U,54689,999,6159,.62224E-3,.11899E-3,0
JILIN-1 GAOFEN 03D50,2022-167J,2024-01-20T19:41:47.497632,15.15995717,.0009849,97.5802,161.9398,304.5995,55.4308,0,U,54690,999,6160,.62473E-3,.11954E-3,0
JIAOTONG 5 (HEAD-2H),2022-167K,2024-01-20T18:54:47.805984,15.23116565,.0011468,97.5800,164.0503,315.2702,44.7608,0,U,54691,999,6172,.10798E-2,.25516E-3,0
JILIN-1 GAOFEN 03D47,2022-167L,2024-01-20T19:31:59.810880,15.15917758,.0012363,97.5915,162.6910,310.7094,49.3063,0,U,54692,999,6161,.64533E-3,.12332E-3,0
2022-167M,2022-167M,2024-01-20T19:37:16.339872,15.27960370,.001064,97.5822,164.9854,300.4952,59.5236,0,U,54693,999,6175,.14644E-2,.40112E-3,0
JILIN-1 GAOFEN 03D49,2022-167N,2024-01-20T19:21:19.865952,15.15926324,.0011043,97.5823,162.0699,328.0840,31.9722,0,U,54694,999,6160,.66773E-3,.12761E-3,0
JILIN-1 GAOFEN 03D48,2022-167P,2024-01-20T18:57:23.685408,15.15950742,.0012106,97.5874,162.3389,317.4150,42.6143,0,U,54695,999,6160,.63197E-3,.12085E-3,0
SHIYAN 20A (SY-20A),2022-169A,2024-01-20T19:10:11.453952,14.28891683,.0008293,59.9951,262.0609,176.3696,183.7401,0,U,54699,999,5779,.131E-3,.196E-5,0
SHIYAN 20B (SY-20B),2022-169B,2024-01-20T19:16:38.302176,14.28857208,.0011589,59.9958,262.1025,206.1957,153.8493,0,U,54700,999,5779,.14092E-3,.221E-5,0
GALAXY 35 (G-35),2022-170A,2024-01-20T08:58:44.659200,1.00271405,.000174,0.0181,64.7463,240.0202,216.0398,0,U,54741,999,408,0,-.157E-5,0
GALAXY 36 (G-36),2022-170B,2024-01-20T14:04:29.331840,1.00270388,.0001033,0.0178,71.1541,346.4245,183.9890,0,U,54742,999,410,0,-.181E-5,0
METEOSAT-12 (MTG-I1),2022-170C,2024-01-20T02:27:10.327968,1.00272825,.0001795,0.3911,355.2769,270.9088,246.0229,0,U,54743,999,416,0,-.27E-6,0
YAOGAN-36 04A,2022-171A,2024-01-20T07:25:04.652832,15.23265605,.0001129,34.9947,325.8337,358.6436,1.4275,0,U,54746,999,6129,.76791E-3,.18655E-3,0
YAOGAN-36 04B,2022-171C,2024-01-20T02:43:25.505760,15.23161532,.0007392,34.9980,327.1291,52.6281,307.5106,0,U,54748,999,6124,.87286E-3,.21166E-3,0
YAOGAN-36 04C,2022-171E,2024-01-20T07:20:03.248160,15.23366331,.0001543,34.9953,325.8119,332.7578,27.3056,0,U,54750,999,6126,.9869E-3,.24076E-3,0
JILIN-1 PINGTAI 01A01,2022-167Q,2024-01-20T18:47:41.098848,15.20887719,.0011152,97.5803,163.3236,318.6398,41.3992,0,U,54751,999,6134,.89199E-3,.19712E-3,0
SHIYAN 21 (SY-21),2022-172A,2024-01-20T19:51:20.500704,15.27492262,.0004534,35.9728,168.5996,309.5933,50.4400,0,U,54752,999,6128,.52985E-3,.14565E-3,0
SWOT,2022-173A,2024-01-20T14:25:51.296160,14.00168781,.0000332,77.6109,141.3122,286.9666,73.1449,0,U,54754,999,5619,.71883E-4,.103E-5,0
O3B MPOWER F1,2022-174A,2024-01-20T12:18:07.369920,5.00118405,.0006216,0.0592,12.2346,299.4005,209.3448,0,U,54755,999,2140,0,-.21E-6,0
O3B MPOWER F2,2022-174B,2024-01-09T23:01:51.963744,4.99697769,.0006892,0.0605,11.3732,294.8293,53.7330,0,U,54756,999,2095,0,-.9E-7,0
STARLINK-5464,2022-175A,2024-01-20T03:46:38.400960,15.08842301,.0001377,53.2180,298.7694,79.2657,280.8490,0,U,54758,999,6230,.8939E-4,.1135E-4,0
STARLINK-5215,2022-175B,2024-01-20T18:10:25.664736,15.08838965,.000166,53.2181,296.1175,77.4459,282.6719,0,U,54759,999,6023,.63384E-4,.721E-5,0
STARLINK-5220,2022-175C,2024-01-20T05:23:58.242624,15.08871404,.0001493,53.2184,303.4663,92.2505,267.8658,0,U,54760,999,6224,.31064E-3,.4663E-4,0
STARLINK-5202,2022-175D,2024-01-20T18:12:24.662592,15.08834555,.0001871,53.2182,301.1089,115.8560,244.2625,0,U,54761,999,6016,.56249E-4,.607E-5,0
STARLINK-5214,2022-175E,2024-01-20T01:57:19.211904,15.08848711,.0001765,53.2183,303.9914,111.6153,248.5027,0,U,54762,999,6222,.21241E-3,.3095E-4,0
STARLINK-5191,2022-175F,2024-01-20T00:32:32.985600,15.08839807,.0001547,53.2174,304.3334,103.0238,257.0927,0,U,54763,999,6221,.98012E-4,.1272E-4,0
STARLINK-5458,2022-175G,2024-01-20T19:06:43.492608,15.08837714,.0001564,53.2187,300.6403,83.7483,276.3687,0,U,54764,999,6017,.1523E-4,-.46E-6,0
STARLINK-5466,2022-175H,2024-01-20T03:38:00.519360,15.08850202,.0001681,53.2181,303.7141,102.8474,257.2706,0,U,54765,999,6223,.2052E-3,.298E-4,0
STARLINK-5471,2022-175J,2024-01-20T17:40:34.414752,15.08841719,.0001389,53.2174,300.9742,79.9622,280.1527,0,U,54766,999,6016,-.26853E-4,-.715E-5,0
STARLINK-5472,2022-175K,2024-01-20T01:41:24.232704,15.08844728,.0001394,53.2165,303.9233,85.6003,274.5149,0,U,54767,999,6222,.11916E-3,.1609E-4,0
STARLINK-5444,2022-175L,2024-01-20T00:59:48.141888,15.08840694,.0001553,53.2184,289.4819,105.4348,254.6816,0,U,54768,999,6242,.74998E-4,.906E-5,0
STARLINK-5404,2022-175M,2024-01-20T01:51:59.869728,15.08871100,.0001475,53.2166,303.9681,91.0910,269.0251,0,U,54769,999,6006,.60558E-3,.9371E-4,0
STARLINK-5448,2022-175N,2024-01-20T18:01:08.472864,15.08843342,.0001631,53.2191,286.0883,82.3550,277.7628,0,U,54770,999,6037,.13927E-3,.1929E-4,0
STARLINK-5451,2022-175P,2024-01-20T18:47:26.244096,15.08840253,.0001905,53.2182,295.5675,111.0789,249.0407,0,U,54771,999,6024,-.30056E-4,-.766E-5,0
STARLINK-5452,2022-175Q,2024-01-20T00:26:34.861920,15.08850538,.0001724,53.2186,289.3374,111.3394,248.7782,0,U,54772,999,6242,.99148E-4,.1291E-4,0
STARLINK-5453,2022-175R,2024-01-20T01:30:47.691936,15.08848637,.0001639,53.2166,303.8751,58.8124,301.3029,0,U,54773,999,6222,.25832E-3,.3826E-4,0
STARLINK-5454,2022-175S,2024-01-20T18:27:33.179328,15.08820820,.0001554,53.2170,285.5125,104.0129,256.1036,0,U,54774,999,6038,.13065E-3,.1791E-4,0
STARLINK-5465,2022-175T,2024-01-20T18:54:44.063136,15.08841982,.0001502,53.2186,300.5790,90.9350,269.1814,0,U,54775,999,6017,-.64085E-4,-.1308E-4,0
STARLINK-5470,2022-175U,2024-01-20T18:22:53.622624,15.08838787,.0001359,53.2183,300.4527,87.1682,272.9466,0,U,54776,999,6017,.82517E-4,.1026E-4,0
STARLINK-5468,2022-175V,2024-01-20T01:20:10.358880,15.08851404,.0001553,53.2174,303.8268,109.5836,250.5324,0,U,54777,999,6222,.30849E-3,.4627E-4,0
STARLINK-5450,2022-175W,2024-01-20T00:15:58.413600,15.08841304,.0001688,53.2185,289.2964,95.0254,265.0930,0,U,54778,999,6242,-.35473E-4,-.853E-5,0
STARLINK-5447,2022-175X,2024-01-20T17:50:31.502688,15.08840630,.0001482,53.2185,286.0379,117.7399,242.3743,0,U,54779,999,6037,-.868E-4,-.1669E-4,0
STARLINK-5449,2022-175Y,2024-01-20T17:24:00.009504,15.08833898,.0001409,53.2168,285.9320,110.3603,249.7540,0,U,54780,999,6037,-.13632E-3,-.2456E-4,0
STARLINK-5443,2022-175Z,2024-01-20T03:21:26.099424,15.08848024,.0001439,53.2167,288.6737,96.4155,263.7001,0,U,54781,999,6244,.16671E-3,.2367E-4,0
STARLINK-5437,2022-175AA,2024-01-20T18:47:04.432416,15.29267816,.0004803,53.2216,236.2222,173.6008,186.5055,0,U,54782,999,6107,.12121E-2,.34696E-3,0
STARLINK-5439,2022-175AB,2024-01-20T17:34:36.195168,15.08837684,.0002264,53.2188,285.9730,139.2334,220.8828,0,U,54783,999,6037,-.74632E-4,-.1476E-4,0
STARLINK-5442,2022-175AC,2024-01-20T01:14:52.800864,15.08853427,.0001642,53.2166,303.8069,87.4189,272.6991,0,U,54784,999,6222,.2789E-3,.4155E-4,0
STARLINK-5440,2022-175AD,2024-01-20T01:14:13.891488,15.08843513,.0001474,53.2167,248.9217,93.4693,266.6468,0,U,54785,999,6299,.6974E-5,-.177E-5,0
STARLINK-5438,2022-175AE,2024-01-20T18:06:26.238240,15.08836041,.0001735,53.2183,286.1047,106.3248,253.7935,0,U,54786,999,6037,.57745E-4,.631E-5,0
STARLINK-5441,2022-175AF,2024-01-19T23:34:11.067456,15.08841698,.0001683,53.2192,304.0776,103.0000,257.1180,0,U,54787,999,6221,.32257E-4,.225E-5,0
